1 42901U 17044B   20323.18582272  .00000083  00000-0  30142-4 0  9992
2 42901  98.2125  34.6615 0007109  12.0460 348.0917 14.54166063174594
1 42901U 17044B   20323.52986481  .00000097  00000-0  33429-4 0  9996
2 42901  98.2125  34.9990 0007103  10.9365 349.2000 14.54166321174647
1 42901U 17044B   20323.87390679  .00000086  00000-0  30819-4 0  9990
2 42901  98.2124  35.3365 0007088   9.8746 350.2578 14.54166287174697
1 42901U 17044B   20324.21794914  .00000089  00000-0  31618-4 0  9990
2 42901  98.2123  35.6739 0006986   9.0133 351.1199 14.54166446174744
1 42901U 17044B   20324.42437429  .00000095  00000-0  33046-4 0  9992
2 42901  98.2123  35.8766 0006994   8.3614 351.7702 14.54166560174777
1 42901U 17044B   20324.69960800  .00000112  00000-0  37086-4 0  9993
2 42901  98.2123  36.1465 0007048   7.4695 352.6610 14.54166798174813
1 42901U 17044B   20324.83722478  .00000104  00000-0  35079-4 0  9997
2 42901  98.2124  36.2815 0007034   7.1037 353.0251 14.54166746174837
